{"type":"FeatureCollection","features":[{"type":"Feature","properties":{"name":"Hernand Castle","layer":"Landmarks","mapName":"OpenWorld","source":"thgl-version.json-drawings"},"geometry":{"type":"Point","coordinates":[3165.551138119271,2539.5467891646917]}},{"type":"Feature","properties":{"name":"Demeniss Castle","layer":"Landmarks","mapName":"OpenWorld","source":"thgl-version.json-drawings"},"geometry":{"type":"Point","coordinates":[3152.578010505716,3430.340578679576]}},{"type":"Feature","properties":{"name":"Fort Musket","layer":"Landmarks","mapName":"OpenWorld","source":"thgl-version.json-drawings"},"geometry":{"type":"Point","coordinates":[4047.0139662581105,4055.1567965392933]}},{"type":"Feature","properties":{"name":"Hexe Sanctuary","layer":"Landmarks","mapName":"OpenWorld","source":"thgl-version.json-drawings"},"geometry":{"type":"Point","coordinates":[4100.418630136986,3595.9838269646716]}},{"type":"Feature","properties":{"name":"Dewhaven Castle","layer":"Landmarks","mapName":"OpenWorld","source":"thgl-version.json-drawings"},"geometry":{"type":"Point","coordinates":[2576.5453678030694,4610.62126703059]}},{"type":"Feature","properties":{"name":"Pailune","layer":"Landmarks","mapName":"OpenWorld","source":"thgl-version.json-drawings"},"geometry":{"type":"Point","coordinates":[4677.820701188588,2751.604543413327]}},{"type":"Feature","properties":{"name":"Beighen","layer":"Landmarks","mapName":"OpenWorld","source":"thgl-version.json-drawings"},"geometry":{"type":"Point","coordinates":[4323.162147648573,3063.093973838707]}},{"type":"Feature","properties":{"name":"Skoghorn","layer":"Landmarks","mapName":"OpenWorld","source":"thgl-version.json-drawings"},"geometry":{"type":"Point","coordinates":[4604.84426593058,1571.997254506128]}},{"type":"Feature","properties":{"name":"Steel Mountains","layer":"Landmarks","mapName":"OpenWorld","source":"thgl-version.json-drawings"},"geometry":{"type":"Point","coordinates":[2299.433206797816,2919.085760428469]}}]}