{"type":"FeatureCollection","features":[{"type":"Feature","properties":{"name":"region_her","layer":"regions","mapName":"OpenWorld","source":"thgl-version.json-regions"},"geometry":{"type":"Point","coordinates":[3514.10737517767,3502.0234685343503]}},{"type":"Feature","properties":{"name":"region_dem","layer":"regions","mapName":"OpenWorld","source":"thgl-version.json-regions"},"geometry":{"type":"Point","coordinates":[3283.198475970749,3607.5911290555155]}},{"type":"Feature","properties":{"name":"region_cal","layer":"regions","mapName":"OpenWorld","source":"thgl-version.json-regions"},"geometry":{"type":"Point","coordinates":[3804.6672222473994,1916.1574423730553]}},{"type":"Feature","properties":{"name":"region_crim","layer":"regions","mapName":"OpenWorld","source":"thgl-version.json-regions"},"geometry":{"type":"Point","coordinates":[4415.387382428675,4415.413116901844]}},{"type":"Feature","properties":{"name":"region_del","layer":"regions","mapName":"OpenWorld","source":"thgl-version.json-regions"},"geometry":{"type":"Point","coordinates":[2885.0123687300443,4859.829433309301]}},{"type":"Feature","properties":{"name":"region_kwe","layer":"regions","mapName":"OpenWorld","source":"thgl-version.json-regions"},"geometry":{"type":"Point","coordinates":[4595.0477763724375,2333.4024793490576]}}]}